[{"OBJECT_NAME":"STARLINK-36943","OBJECT_ID":"2026-040W","EPOCH":"2026-03-09T22:00:01.999584","MEAN_MOTION":16.07517232,"ECCENTRICITY":9.279e-5,"INCLINATION":97.2771,"RA_OF_ASC_NODE":17.138,"ARG_OF_PERICENTER":100.6518,"MEAN_ANOMALY":312.4692,"EPHEMERIS_TYPE":0,"CLASSIFICATION_TYPE":"U","NORAD_CAT_ID":68035,"ELEMENT_SET_NO":999,"REV_AT_EPOCH":251,"BSTAR":-0.0014586961,"MEAN_MOTION_DOT":-0.0115003,"MEAN_MOTION_DDOT":0.00046406593},{"OBJECT_NAME":"ATLAS CENTAUR R\/B","OBJECT_ID":"2012-048N","EPOCH":"2026-03-09T22:10:29.696448","MEAN_MOTION":15.92956396,"ECCENTRICITY":0.00225847,"INCLINATION":64.6216,"RA_OF_ASC_NODE":226.7555,"ARG_OF_PERICENTER":234.3173,"MEAN_ANOMALY":125.5886,"EPHEMERIS_TYPE":0,"CLASSIFICATION_TYPE":"U","NORAD_CAT_ID":38770,"ELEMENT_SET_NO":999,"REV_AT_EPOCH":10335,"BSTAR":0.0011406583,"MEAN_MOTION_DOT":0.00408861,"MEAN_MOTION_DDOT":7.1817314e-5}]
